CCSDS_OMM_VERS = 2.0
CREATION_DATE  = 
ORIGINATOR     = 

OBJECT_NAME    = ATLAS CENTAUR R/B
OBJECT_ID      = 1972-065B
CENTER_NAME    = EARTH
REF_FRAME      = TEME
TIME_SYSTEM    = UTC
MEAN_ELEMENT_THEORY = SGP/SGP4

EPOCH          = 2025-12-23T04:50:56.634432
MEAN_MOTION    = 14.77435148
ECCENTRICITY   = .00332201
INCLINATION    = 35.0025
RA_OF_ASC_NODE = 33.9111
ARG_OF_PERICENTER = 86.7972
MEAN_ANOMALY   = 273.6528

EPHEMERIS_TYPE = 0
CLASSIFICATION_TYPE = U
NORAD_CAT_ID   = 6155
ELEMENT_SET_NO = 999
REV_AT_EPOCH   = 82994
BSTAR          = .15557661E-3
MEAN_MOTION_DOT = .1111E-4
MEAN_MOTION_DDOT = 0

CCSDS_OMM_VERS = 2.0
CREATION_DATE  = 
ORIGINATOR     = 

OBJECT_NAME    = SL-8 R/B
OBJECT_ID      = 1975-112B
CENTER_NAME    = EARTH
REF_FRAME      = TEME
TIME_SYSTEM    = UTC
MEAN_ELEMENT_THEORY = SGP/SGP4

EPOCH          = 2025-12-23T04:41:12.922080
MEAN_MOTION    = 14.38152563
ECCENTRICITY   = .00166858
INCLINATION    = 74.0591
RA_OF_ASC_NODE = 159.6260
ARG_OF_PERICENTER = 269.9133
MEAN_ANOMALY   = 90.0109

EPHEMERIS_TYPE = 0
CLASSIFICATION_TYPE = U
NORAD_CAT_ID   = 8459
ELEMENT_SET_NO = 999
REV_AT_EPOCH   = 62087
BSTAR          = .12128887E-3
MEAN_MOTION_DOT = .342E-5
MEAN_MOTION_DDOT = 0

CCSDS_OMM_VERS = 2.0
CREATION_DATE  = 
ORIGINATOR     = 

OBJECT_NAME    = SL-3 R/B
OBJECT_ID      = 1977-057B
CENTER_NAME    = EARTH
REF_FRAME      = TEME
TIME_SYSTEM    = UTC
MEAN_ELEMENT_THEORY = SGP/SGP4

EPOCH          = 2025-12-23T01:36:21.377376
MEAN_MOTION    = 15.43183996
ECCENTRICITY   = .00071592
INCLINATION    = 97.5688
RA_OF_ASC_NODE = 160.7989
ARG_OF_PERICENTER = 191.5011
MEAN_ANOMALY   = 168.6074

EPHEMERIS_TYPE = 0
CLASSIFICATION_TYPE = U
NORAD_CAT_ID   = 10114
ELEMENT_SET_NO = 999
REV_AT_EPOCH   = 65650
BSTAR          = .3176881E-3
MEAN_MOTION_DOT = .14016E-3
MEAN_MOTION_DDOT = 0

CCSDS_OMM_VERS = 2.0
CREATION_DATE  = 
ORIGINATOR     = 

OBJECT_NAME    = SEASAT 1
OBJECT_ID      = 1978-064A
CENTER_NAME    = EARTH
REF_FRAME      = TEME
TIME_SYSTEM    = UTC
MEAN_ELEMENT_THEORY = SGP/SGP4

EPOCH          = 2025-12-22T20:25:48.748224
MEAN_MOTION    = 14.46071447
ECCENTRICITY   = .00013812
INCLINATION    = 108.0135
RA_OF_ASC_NODE = 324.2484
ARG_OF_PERICENTER = 254.2230
MEAN_ANOMALY   = 105.8763

EPHEMERIS_TYPE = 0
CLASSIFICATION_TYPE = U
NORAD_CAT_ID   = 10967
ELEMENT_SET_NO = 999
REV_AT_EPOCH   = 49540
BSTAR          = .11601905E-3
MEAN_MOTION_DOT = .277E-5
MEAN_MOTION_DDOT = 0

CCSDS_OMM_VERS = 2.0
CREATION_DATE  = 
ORIGINATOR     = 

OBJECT_NAME    = SL-14 R/B
OBJECT_ID      = 1979-011B
CENTER_NAME    = EARTH
REF_FRAME      = TEME
TIME_SYSTEM    = UTC
MEAN_ELEMENT_THEORY = SGP/SGP4

EPOCH          = 2025-12-22T23:36:19.740384
MEAN_MOTION    = 14.91781672
ECCENTRICITY   = .00150404
INCLINATION    = 82.5234
RA_OF_ASC_NODE = 169.3285
ARG_OF_PERICENTER = 317.9383
MEAN_ANOMALY   = 42.0680

EPHEMERIS_TYPE = 0
CLASSIFICATION_TYPE = U
NORAD_CAT_ID   = 11267
ELEMENT_SET_NO = 999
REV_AT_EPOCH   = 51734
BSTAR          = .59381306E-4
MEAN_MOTION_DOT = .625E-5
MEAN_MOTION_DDOT = 0

CCSDS_OMM_VERS = 2.0
CREATION_DATE  = 
ORIGINATOR     = 

OBJECT_NAME    = SL-8 R/B
OBJECT_ID      = 1979-089B
CENTER_NAME    = EARTH
REF_FRAME      = TEME
TIME_SYSTEM    = UTC
MEAN_ELEMENT_THEORY = SGP/SGP4

EPOCH          = 2025-12-23T02:26:46.192992
MEAN_MOTION    = 14.42290129
ECCENTRICITY   = .00146531
INCLINATION    = 74.0679
RA_OF_ASC_NODE = 232.8011
ARG_OF_PERICENTER = 62.8353
MEAN_ANOMALY   = 297.4295

EPHEMERIS_TYPE = 0
CLASSIFICATION_TYPE = U
NORAD_CAT_ID   = 11574
ELEMENT_SET_NO = 999
REV_AT_EPOCH   = 42506
BSTAR          = .84154388E-4
MEAN_MOTION_DOT = .252E-5
MEAN_MOTION_DDOT = 0

CCSDS_OMM_VERS = 2.0
CREATION_DATE  = 
ORIGINATOR     = 

OBJECT_NAME    = SL-14 R/B
OBJECT_ID      = 1980-005B
CENTER_NAME    = EARTH
REF_FRAME      = TEME
TIME_SYSTEM    = UTC
MEAN_ELEMENT_THEORY = SGP/SGP4

EPOCH          = 2025-12-23T01:55:56.051904
MEAN_MOTION    = 14.90803252
ECCENTRICITY   = .00171892
INCLINATION    = 82.5140
RA_OF_ASC_NODE = 19.8914
ARG_OF_PERICENTER = 62.0308
MEAN_ANOMALY   = 298.2648

EPHEMERIS_TYPE = 0
CLASSIFICATION_TYPE = U
NORAD_CAT_ID   = 11672
ELEMENT_SET_NO = 999
REV_AT_EPOCH   = 46507
BSTAR          = .5319594E-4
MEAN_MOTION_DOT = .55E-5
MEAN_MOTION_DDOT = 0

CCSDS_OMM_VERS = 2.0
CREATION_DATE  = 
ORIGINATOR     = 

OBJECT_NAME    = SL-8 R/B
OBJECT_ID      = 1981-003B
CENTER_NAME    = EARTH
REF_FRAME      = TEME
TIME_SYSTEM    = UTC
MEAN_ELEMENT_THEORY = SGP/SGP4

EPOCH          = 2025-12-22T11:56:07.475136
MEAN_MOTION    = 15.07306314
ECCENTRICITY   = .02782694
INCLINATION    = 82.9325
RA_OF_ASC_NODE = 1.2235
ARG_OF_PERICENTER = 86.7267
MEAN_ANOMALY   = 276.5753

EPHEMERIS_TYPE = 0
CLASSIFICATION_TYPE = U
NORAD_CAT_ID   = 12139
ELEMENT_SET_NO = 999
REV_AT_EPOCH   = 30303
BSTAR          = .45017556E-3
MEAN_MOTION_DOT = .17017E-3
MEAN_MOTION_DDOT = 0

CCSDS_OMM_VERS = 2.0
CREATION_DATE  = 
ORIGINATOR     = 

OBJECT_NAME    = SL-3 R/B
OBJECT_ID      = 1981-046B
CENTER_NAME    = EARTH
REF_FRAME      = TEME
TIME_SYSTEM    = UTC
MEAN_ELEMENT_THEORY = SGP/SGP4

EPOCH          = 2025-12-23T00:39:34.792128
MEAN_MOTION    = 15.39807713
ECCENTRICITY   = .0018214
INCLINATION    = 81.2318
RA_OF_ASC_NODE = 21.6285
ARG_OF_PERICENTER = 286.8945
MEAN_ANOMALY   = 73.0299

EPHEMERIS_TYPE = 0
CLASSIFICATION_TYPE = U
NORAD_CAT_ID   = 12465
ELEMENT_SET_NO = 999
REV_AT_EPOCH   = 42662
BSTAR          = .29840342E-3
MEAN_MOTION_DOT = .1193E-3
MEAN_MOTION_DDOT = 0

CCSDS_OMM_VERS = 2.0
CREATION_DATE  = 
ORIGINATOR     = 

OBJECT_NAME    = SL-3 R/B
OBJECT_ID      = 1981-103B
CENTER_NAME    = EARTH
REF_FRAME      = TEME
TIME_SYSTEM    = UTC
MEAN_ELEMENT_THEORY = SGP/SGP4

EPOCH          = 2025-12-23T03:00:00.655776
MEAN_MOTION    = 15.20349740
ECCENTRICITY   = .00125835
INCLINATION    = 81.1606
RA_OF_ASC_NODE = 303.1899
ARG_OF_PERICENTER = 176.0748
MEAN_ANOMALY   = 184.0584

EPHEMERIS_TYPE = 0
CLASSIFICATION_TYPE = U
NORAD_CAT_ID   = 12904
ELEMENT_SET_NO = 999
REV_AT_EPOCH   = 96159
BSTAR          = .31834982E-3
MEAN_MOTION_DOT = .6965E-4
MEAN_MOTION_DDOT = 0

CCSDS_OMM_VERS = 2.0
CREATION_DATE  = 
ORIGINATOR     = 

OBJECT_NAME    = SL-3 R/B
OBJECT_ID      = 1982-013B
CENTER_NAME    = EARTH
REF_FRAME      = TEME
TIME_SYSTEM    = UTC
MEAN_ELEMENT_THEORY = SGP/SGP4

EPOCH          = 2025-12-23T02:27:46.187424
MEAN_MOTION    = 15.21172970
ECCENTRICITY   = .00241065
INCLINATION    = 81.1747
RA_OF_ASC_NODE = 250.4801
ARG_OF_PERICENTER = 77.6898
MEAN_ANOMALY   = 282.7030

EPHEMERIS_TYPE = 0
CLASSIFICATION_TYPE = U
NORAD_CAT_ID   = 13068
ELEMENT_SET_NO = 999
REV_AT_EPOCH   = 39270
BSTAR          = .21111047E-3
MEAN_MOTION_DOT = .4767E-4
MEAN_MOTION_DDOT = 0

CCSDS_OMM_VERS = 2.0
CREATION_DATE  = 
ORIGINATOR     = 

OBJECT_NAME    = SL-3 R/B
OBJECT_ID      = 1982-039B
CENTER_NAME    = EARTH
REF_FRAME      = TEME
TIME_SYSTEM    = UTC
MEAN_ELEMENT_THEORY = SGP/SGP4

EPOCH          = 2025-12-23T04:17:15.362592
MEAN_MOTION    = 15.09581184
ECCENTRICITY   = .0029404
INCLINATION    = 81.1717
RA_OF_ASC_NODE = 304.0870
ARG_OF_PERICENTER = 216.7668
MEAN_ANOMALY   = 143.1542

EPHEMERIS_TYPE = 0
CLASSIFICATION_TYPE = U
NORAD_CAT_ID   = 13154
ELEMENT_SET_NO = 999
REV_AT_EPOCH   = 37009
BSTAR          = .1904458E-3
MEAN_MOTION_DOT = .3112E-4
MEAN_MOTION_DDOT = 0

